ADRAS-J                 
1 58992U 24034A   24218.19432628  .00005856  00000+0  53795-3 0  9993
2 58992  98.2146 193.4644 0042103 246.5570 113.1220 14.94562607 25185
